[{"OBJECT_NAME":"SHIYAN-1 (SY-1)","OBJECT_ID":"2004-012A","EPOCH":"2026-03-09T17:40:34.066560","MEAN_MOTION":15.31043463,"ECCENTRICITY":0.00058726,"INCLINATION":97.8764,"RA_OF_ASC_NODE":140.5238,"ARG_OF_PERICENTER":23.6952,"MEAN_ANOMALY":336.4557,"EPHEMERIS_TYPE":0,"CLASSIFICATION_TYPE":"U","NORAD_CAT_ID":28220,"ELEMENT_SET_NO":999,"REV_AT_EPOCH":19586,"BSTAR":0.00054854449,"MEAN_MOTION_DOT":0.00016393,"MEAN_MOTION_DDOT":0},{"OBJECT_NAME":"STARLINK-34721","OBJECT_ID":"2025-161AA","EPOCH":"2026-03-09T21:07:46.343136","MEAN_MOTION":15.30208248,"ECCENTRICITY":0.00011796,"INCLINATION":53.16,"RA_OF_ASC_NODE":292.9834,"ARG_OF_PERICENTER":167.4427,"MEAN_ANOMALY":192.6603,"EPHEMERIS_TYPE":0,"CLASSIFICATION_TYPE":"U","NORAD_CAT_ID":65039,"ELEMENT_SET_NO":999,"REV_AT_EPOCH":3426,"BSTAR":0.00085484728,"MEAN_MOTION_DOT":0.00025051,"MEAN_MOTION_DDOT":0}]
